ONEWEB-0531             
1 54146U 22138AK  24134.77073314  .00000124  00000+0  27192-3 0  9992
2 54146  87.9216  66.5271 0002962  65.8227 294.3216 13.20772201 78402
ONEWEB-0535             
1 54147U 22138AL  24134.84603738  .00000124  00000+0  27799-3 0  9993
2 54147  87.9124  97.0768 0002123  76.7008 283.4361 13.19725727 76023
ONEWEB-0536             
1 54148U 22138AM  24134.75810479  .00000105  00000+0  22721-3 0  9995
2 54148  87.9214  66.5790 0002531  56.0021 304.1352 13.20773667 78390
ONEWEB-0527             
1 54642U 22166A   24134.71334534  .00000008  00000+0 -11979-4 0  9991
2 54642  87.9317  36.1645 0002062  81.2384 278.8983 13.21826726 70548
ONEWEB-0528             
1 54643U 22166B   24134.71965495  .00000051  00000+0  93153-4 0  9999
2 54643  87.9322  36.1489 0001963  85.5835 274.5523 13.21826202 70551
ONEWEB-0539             
1 54644U 22166C   24134.52883120  .00000136  00000+0  29860-3 0  9990
2 54644  87.9322  36.1885 0001680  78.4458 281.6865 13.21826559 70520
ONEWEB-0540             
1 54645U 22166D   24134.44762096  .00000093  00000+0  19475-3 0  9993
2 54645  87.9316  36.2250 0001597  81.8341 278.2974 13.21827081 70509
ONEWEB-0542             
1 54646U 22166E   24134.46259407  .00000154  00000+0  34144-3 0  9991
2 54646  87.9322  36.2014 0001542  68.8313 291.2985 13.21826357 70512
